OBJECT_NAME,OBJECT_ID,EPOCH,MEAN_MOTION,ECCENTRICITY,INCLINATION,RA_OF_ASC_NODE,ARG_OF_PERICENTER,MEAN_ANOMALY,EPHEMERIS_TYPE,CLASSIFICATION_TYPE,NORAD_CAT_ID,ELEMENT_SET_NO,REV_AT_EPOCH,BSTAR,MEAN_MOTION_DOT,MEAN_MOTION_DDOT
ONEWEB-0550,2023-043G,2026-06-18T21:27:31.752864,13.21826388,.00018841,87.9254,243.6386,93.8344,266.3005,0,U,56052,999,15845,-.13225761E-3,-.42E-6,0
ONEWEB-0551,2023-043H,2026-06-18T18:03:30.132576,13.15549130,.00019825,87.9000,258.9145,111.2934,248.8408,0,U,56053,999,15660,-.15948291E-3,-.47E-6,0
ONEWEB-0552,2023-043J,2026-06-18T17:42:12.640320,13.21827558,.00018072,87.9252,243.6752,101.0722,259.0615,0,U,56054,999,15843,-.48834343E-3,-.189E-5,0
ONEWEB-0553,2023-043K,2026-06-18T20:29:33.883296,13.16594832,.00024091,87.9094,228.4435,92.3361,267.8046,0,U,56055,999,15919,.17691039E-4,.2E-6,0
ONEWEB-0554,2023-043L,2026-06-18T22:00:46.601856,13.16595166,.00019138,87.9094,228.4398,82.5513,277.5835,0,U,56056,999,15918,.21184037E-3,.94E-6,0
ONEWEB-0555,2023-043M,2026-06-18T21:06:00.650016,13.16595410,.00026581,87.9100,228.4358,93.2281,266.9154,0,U,56057,999,15918,-.68064727E-3,-.247E-5,0
ONEWEB-0557,2023-043N,2026-06-18T21:26:33.459648,13.16594604,.00026784,87.9096,228.4429,70.1582,289.9837,0,U,56058,999,15918,-.10085697E-3,-.26E-6,0
ONEWEB-0558,2023-043P,2026-06-18T22:59:31.846272,13.21827569,.00022058,87.9251,243.6264,106.9380,253.1996,0,U,56059,999,15847,.14251899E-3,.72E-6,0
ONEWEB-0559,2023-043Q,2026-06-18T22:42:34.640064,13.21825347,.0001941,87.9257,243.6235,105.4386,254.6963,0,U,56060,999,15848,.10126133E-3,.55E-6,0
ONEWEB-0566,2023-043R,2026-06-18T22:32:54.623040,13.21826866,.00019373,87.9254,243.6231,108.8821,251.2524,0,U,56061,999,15846,.28300294E-4,.25E-6,0
ONEWEB-0568,2023-043S,2026-06-18T21:51:38.851776,13.16594176,.00023442,87.9093,228.4291,94.7825,265.3574,0,U,56062,999,15920,-.4621618E-5,.11E-6,0
ONEWEB-0574,2023-043T,2026-06-18T22:23:13.100928,13.21824335,.00020461,87.9265,243.6274,93.8272,266.3096,0,U,56063,999,15850,.32132636E-3,.146E-5,0
ONEWEB-0575,2023-043U,2026-06-18T21:42:31.811040,13.16593949,.00022339,87.9093,228.4268,86.7302,273.4085,0,U,56064,999,15919,.5060175E-4,.32E-6,0
ONEWEB-0576,2023-043V,2026-06-18T10:18:32.802048,13.16593979,.0002151,87.9099,228.5288,91.3083,268.8294,0,U,56065,999,15912,-.39741E-4,-.2E-7,0
ONEWEB-0577,2023-043W,2026-06-18T21:24:17.429760,13.16593659,.00021519,87.9098,228.4347,76.0578,284.0792,0,U,56066,999,15921,-.14312272E-3,-.42E-6,0
ONEWEB-0578,2023-043X,2026-06-18T18:25:50.501568,13.21824761,.0002328,87.9256,243.6581,96.3851,263.7548,0,U,56067,999,15844,.14274178E-3,.72E-6,0
ONEWEB-0579,2023-043Y,2026-06-18T18:13:44.399424,13.21827395,.00017385,87.9262,243.6563,103.7153,256.4174,0,U,56068,999,15845,.21074267E-3,.1E-5,0
ONEWEB-0581,2023-043Z,2026-06-18T21:33:23.447520,13.16592662,.00020075,87.9096,228.4447,81.2526,278.8832,0,U,56069,999,15918,-.3598085E-4,-.1E-7,0
ONEWEB-0609,2023-043AA,2026-06-18T18:41:09.495168,13.15549431,.00020121,87.9002,258.8944,101.8898,258.2458,0,U,56070,999,15664,.3188152E-3,.133E-5,0
ONEWEB-0613,2023-043AB,2026-06-18T18:37:43.433760,13.15552564,.00020797,87.9001,258.9073,93.9972,266.1396,0,U,56071,999,15664,-.21372825E-2,-.792E-5,0
ONEWEB-0630,2023-043AC,2026-06-18T18:30:53.165952,13.15547013,.0001786,87.9005,258.8797,105.5588,254.5740,0,U,56072,999,15663,.20335701E-3,.89E-6,0
ONEWEB-0632,2023-043AD,2026-06-18T18:24:03.342240,13.15548756,.00018924,87.9002,258.8986,95.4507,264.6839,0,U,56073,999,15663,.26098016E-3,.111E-5,0
ONEWEB-0633,2023-043AE,2026-06-18T18:14:54.920832,13.15547040,.00018634,87.9010,258.8755,112.9353,247.1974,0,U,56074,999,15661,.41303447E-4,.28E-6,0
ONEWEB-0634,2023-043AF,2026-06-18T17:54:23.521248,13.15548909,.00023228,87.9001,258.9186,103.1493,256.9897,0,U,56075,999,15660,-.19008439E-3,-.59E-6,0
ONEWEB-0635,2023-043AG,2026-06-18T17:47:31.227360,13.15547845,.00019509,87.9010,258.8820,92.6449,267.4905,0,U,56076,999,15663,-.90772469E-3,-.329E-5,0
ONEWEB-0636,2023-043AH,2026-06-18T17:36:07.957152,13.15549201,.00020045,87.9010,258.8900,94.1755,265.9604,0,U,56077,999,15661,-.35276292E-3,-.12E-5,0
ONEWEB-0637,2023-043AJ,2026-06-18T22:55:34.834656,13.15549692,.00022498,87.9003,258.8622,95.2619,264.8768,0,U,56078,999,15666,-.20289969E-3,-.64E-6,0
ONEWEB-0647,2023-043AK,2026-06-18T22:48:44.505504,13.15549305,.00018267,87.9004,258.8757,98.3904,261.7433,0,U,56079,999,15665,-.35545658E-4,-.1E-7,0
ONEWEB-0651,2023-043AL,2026-06-18T22:41:53.500704,13.15549529,.00020739,87.9002,258.8701,93.6895,266.4472,0,U,56080,999,15785,.21507195E-3,.94E-6,0
ONEWEB-0718,2023-043AM,2026-06-18T22:35:01.707072,13.15545024,.00023006,87.9003,258.8518,112.3058,247.8317,0,U,56081,999,15666,.12497526E-2,.483E-5,0
ONEWEB-0561,2023-068A,2026-06-18T18:55:32.536128,13.20773303,.00017003,87.9195,274.1240,91.8722,268.2606,0,U,56710,999,14971,-.58937475E-4,-.11E-6,0
ONEWEB-0668,2023-068B,2026-06-18T20:56:55.555008,13.16594685,.00026189,87.9095,228.4377,97.4517,262.6911,0,U,56711,999,15200,-.11158422E-3,-.3E-6,0
ONEWEB-0676,2023-068C,2026-06-18T21:08:18.785472,13.16593047,.00020128,87.9097,228.4423,88.0923,272.0438,0,U,56712,999,15192,-.16044818E-3,-.48E-6,0
ONEWEB-0677,2023-068D,2026-06-18T18:38:33.843840,13.20769829,.00022446,87.9196,274.1180,91.6634,268.4756,0,U,56713,999,15001,-.40360123E-4,-.3E-7,0
ONEWEB-0678,2023-068E,2026-06-18T18:10:21.821664,13.15545348,.00021382,87.9015,258.8803,98.9803,261.1569,0,U,56714,999,14949,.82534521E-3,.324E-5,0
ONEWEB-0679,2023-068F,2026-06-18T21:58:28.299648,13.16598271,.00024683,87.9091,228.4265,90.1331,270.0082,0,U,56715,999,15195,.90423319E-3,.359E-5,0
ONEWEB-0680,2023-068G,2026-06-18T21:54:08.074944,13.21828311,.00026131,87.9260,243.6279,96.2722,263.8710,0,U,56716,999,15132,.11624095E-3,.61E-6,0
ONEWEB-0681,2023-068H,2026-06-18T21:26:17.009088,13.21827566,.00018967,87.9256,243.6328,70.6384,289.4955,0,U,56717,999,15131,-.30954314E-3,-.115E-5,0
ONEWEB-0682,2023-068J,2026-06-18T18:44:35.887488,13.15548717,.0002489,87.9010,258.8765,97.5996,262.5417,0,U,56718,999,14966,.31422909E-3,.131E-5,0
ONEWEB-0683,2023-068K,2026-06-18T22:57:51.866784,13.15549404,.00022704,87.9013,258.8412,102.0686,258.0698,0,U,56719,999,14965,-.20291916E-3,-.64E-6,0
ONEWEB-0684,2023-068L,2026-06-18T17:40:42.253824,13.15548221,.00016321,87.9007,258.8751,142.2885,217.8360,0,U,56720,999,14945,-.23009364E-3,-.74E-6,0
ONEWEB-0686,2023-068M,2026-06-18T21:01:29.102592,13.16595050,.00022666,87.9086,228.4579,104.8484,255.2898,0,U,56721,999,15193,-.17172454E-3,-.53E-6,0
ONEWEB-0694,2023-068N,2026-06-18T21:10:36.008544,13.16594612,.00025567,87.9107,228.4215,96.9908,263.1514,0,U,56722,999,15199,-.16168963E-3,-.49E-6,0
ONEWEB-0696,2023-068P,2026-06-18T18:28:36.315264,13.15546745,.00014641,87.9002,258.9065,103.2538,256.8756,0,U,56723,999,14957,.29465593E-3,.124E-5,0
ONEWEB-0703,2023-068Q,2026-06-18T18:42:18.710208,13.15548956,.00010911,87.9002,258.8858,93.7504,266.3752,0,U,56724,999,14946,.2786595E-3,.118E-5,0
ONEWEB-0721,2023-068R,2026-06-18T17:29:22.754976,13.22469279,.00018855,86.6767,85.0245,77.9832,282.1513,0,U,56725,999,15814,.64921636E-4,.42E-6,0
ONEWEB-0015,2024-188A,2026-06-18T20:02:57.508512,13.11414588,.00021432,87.8882,20.7649,73.4218,286.7146,0,U,61594,999,8467,-.11338614E-2,-.389E-5,0
ONEWEB-0687,2024-188B,2026-06-18T19:48:38.198304,13.17648420,.00023604,87.9126,5.5506,86.2003,273.9399,0,U,61595,999,8611,.17212479E-3,.8E-6,0
ONEWEB-0688,2024-188C,2026-06-18T22:19:17.646240,13.17649220,.00026124,87.9127,5.5295,62.7986,297.3412,0,U,61596,999,8612,-.9306938E-5,.9E-7,0
ONEWEB-0689,2024-188D,2026-06-18T20:51:47.284128,13.11420992,.00020955,87.8899,20.7165,90.9436,269.1932,0,U,61597,999,8467,.79302281E-3,.294E-5,0
ONEWEB-0690,2024-188E,2026-06-18T02:47:47.402304,13.11416368,.0001234,87.8894,20.8778,75.1012,285.0252,0,U,61598,999,8475,.18306E-2,.662E-5,0
ONEWEB-0691,2024-188F,2026-06-18T20:59:08.575584,13.11418623,.00021074,87.8904,20.6359,78.4838,281.6527,0,U,61599,999,8470,.12318313E-2,.449E-5,0
ONEWEB-0692,2024-188G,2026-06-18T19:38:33.844992,13.11414358,.00019504,87.8883,20.7600,110.3235,249.8102,0,U,61600,999,8468,.84873956E-3,.313E-5,0
ONEWEB-0693,2024-188H,2026-06-18T22:36:18.084672,13.17648590,.00012464,87.9124,5.5472,68.9146,291.2119,0,U,61601,999,8611,-.7484946E-5,.1E-6,0
ONEWEB-0695,2024-188J,2026-06-18T20:54:15.335712,13.11419180,.00021749,87.8879,20.7413,98.2955,261.8419,0,U,61602,999,8468,.57381748E-3,.216E-5,0
ONEWEB-0697,2024-188K,2026-06-18T19:50:45.699648,13.11414182,.00018578,87.8883,20.7405,110.5379,249.5948,0,U,61603,999,8466,-.22510025E-3,-.67E-6,0
ONEWEB-0698,2024-188L,2026-06-18T22:58:46.292736,13.11416380,.00010377,87.8883,20.7284,123.5735,236.5493,0,U,61604,999,8470,.1516216E-2,.55E-5,0
ONEWEB-0699,2024-188M,2026-06-18T21:29:14.220672,13.10409099,.00016493,87.8832,35.9262,105.7416,254.3894,0,U,61605,999,8353,.76594853E-2,.2689E-4,0
ONEWEB-0700,2024-188N,2026-06-18T21:31:38.816256,13.10403577,.00018905,87.8852,35.8350,103.5425,256.5914,0,U,61606,999,8352,.69219397E-2,.2431E-4,0
ONEWEB-0701,2024-188P,2026-06-18T21:55:41.938176,13.10360157,.00015152,87.8829,35.9218,115.8658,244.2625,0,U,61607,999,8353,-.85196711E-2,-.296E-4,0
ONEWEB-0702,2024-188Q,2026-06-18T20:24:55.901664,13.11418521,.00021561,87.8903,20.6561,114.2746,245.8607,0,U,61608,999,8470,-.17748472E-2,-.616E-5,0
ONEWEB-0704,2024-188R,2026-06-18T21:38:52.093248,13.10391426,.0002237,87.8846,35.9137,110.2496,249.8872,0,U,61609,999,8351,.41116248E-2,.1449E-4,0
ONEWEB-0705,2024-188S,2026-06-18T21:46:03.628416,13.10376908,.00027154,87.8844,35.9182,95.9268,264.2169,0,U,61610,999,7568,-.8824197E-3,-.295E-5,0
ONEWEB-0706,2024-188T,2026-06-18T08:34:45.617952,13.10416625,.0002081,87.8829,36.0329,100.7667,259.3695,0,U,61611,999,8353,.10065E-1,.353E-4,0
ONEWEB-0707,2024-188U,2026-06-18T21:34:03.452448,13.10399326,.00021219,87.8844,35.9190,98.9712,261.1656,0,U,61612,999,8354,.58346934E-2,.2051E-4,0
